EUTELSAT 21B            
1 38992U 12062B   25281.56842479  .00000132  00000+0  00000+0 0  9999
2 38992   0.0751  18.2959 0002658 183.4197  41.9539  1.00270191 47300
EUTELSAT 70B            
1 39020U 12069A   25281.60785712 -.00000042  00000+0  00000+0 0  9991
2 39020   0.0662   6.8561 0004122 192.0548 107.9124  1.00271636 46981
EUTELSAT 117 WEST A     
1 39122U 13012A   25281.50181804 -.00000011  00000+0  00000+0 0  9990
2 39122   0.0528  61.7210 0002771 140.6703 238.8582  1.00271720 45903
EUTELSAT 7B             
1 39163U 13022A   25281.35142325  .00000050  00000+0  00000+0 0  9996
2 39163   0.0706   4.6495 0001221 307.6761 198.4401  1.00269800 45430
EXPRESS-AT1             
1 39612U 14010A   25281.64659848  .00000080  00000+0  00000+0 0  9991
2 39612   0.0184 223.8502 0000409 255.9985 186.4860  1.00270528 42299
EXPRESS-AT2             
1 39613U 14010B   25281.66323855 -.00000279  00000+0  00000+0 0  9991
2 39613   0.0126 245.5714 0000448 221.1758 289.4345  1.00272113 41976
EUTELSAT 3B             
1 39773U 14030A   25281.35064325  .00000022  00000+0  00000+0 0  9995
2 39773   0.0657   9.0841 0004555 184.9802 312.5075  1.00271535 41543
EUTELSAT 115 WEST B     
1 40425U 15010B   25281.54138466 -.00000023  00000+0  00000+0 0  9991
2 40425   0.0269  47.5310 0000362  54.0853 355.8230  1.00272505 38874
